LEMUR-2-PETERG          
1 42841U 17042S   26068.48235713  .00023240  00000+0  81076-3 0  9993
2 42841  97.3980 253.6596 0003700 341.6938  18.4169 15.29611459473171
STARLINK-31433          
1 59243U 24049N   26067.62118094 -.00000658  00000+0 -14393-4 0  9998
2 59243  43.0018 149.4846 0001332 233.1987 126.8743 15.27571687112249
